[
  {
    "COMMENT": "GENERATED VIA SPACETRACK.ORG API",
    "ORIGINATOR": "18 SPCS",
    "NORAD_CAT_ID": "46469",
    "OBJECT_NAME": "HAIYANG 2C",
    "OBJECT_TYPE": "PAYLOAD",
    "CLASSIFICATION_TYPE": "U",
    "INTLDES": "20066A",
    "EPOCH": "2023-06-28 03:58:51",
    "EPOCH_MICROSECONDS": "630240",
    "MEAN_MOTION": "13.83373096",
    "ECCENTRICITY": "0.0010074",
    "INCLINATION": "65.9971",
    "RA_OF_ASC_NODE": "36.7484",
    "ARG_OF_PERICENTER": "299.3598",
    "MEAN_ANOMALY": "60.6464",
    "EPHEMERIS_TYPE": "0",
    "ELEMENT_SET_NO": "999",
    "REV_AT_EPOCH": "13970",
    "BSTAR": "0.000051684",
    "MEAN_MOTION_DOT": "-0.00000024",
    "MEAN_MOTION_DDOT": "0",
    "FILE": "3944653",
    "TLE_LINE0": "0 HAIYANG 2C",
    "TLE_LINE1": "1 46469U 20066A   23179.16587535 -.00000024  00000-0  51684-4 0  9990",
    "TLE_LINE2": "2 46469  65.9971  36.7484 0010074 299.3598  60.6464 13.83373096139706",
    "OBJECT_ID": "2020-066A",
    "OBJECT_NUMBER": "46469",
    "SEMIMAJOR_AXIS": "7330.084",
    "PERIOD": "104.093",
    "APOGEE": "959.333",
    "PERIGEE": "944.565",
    "DECAYED": "0"
  },
  {
    "COMMENT": "GENERATED VIA SPACETRACK.ORG API",
    "ORIGINATOR": "18 SPCS",
    "NORAD_CAT_ID": "46469",
    "OBJECT_NAME": "HAIYANG 2C",
    "OBJECT_TYPE": "PAYLOAD",
    "CLASSIFICATION_TYPE": "U",
    "INTLDES": "20066A",
    "EPOCH": "2023-06-28 07:27:04",
    "EPOCH_MICROSECONDS": "172544",
    "MEAN_MOTION": "13.83373112",
    "ECCENTRICITY": "0.0010078",
    "INCLINATION": "65.9971",
    "RA_OF_ASC_NODE": "36.3884",
    "ARG_OF_PERICENTER": "299.342",
    "MEAN_ANOMALY": "60.6642",
    "EPHEMERIS_TYPE": "0",
    "ELEMENT_SET_NO": "999",
    "REV_AT_EPOCH": "13972",
    "BSTAR": "0.000050647",
    "MEAN_MOTION_DOT": "-0.00000025",
    "MEAN_MOTION_DDOT": "0",
    "FILE": "3944886",
    "TLE_LINE0": "0 HAIYANG 2C",
    "TLE_LINE1": "1 46469U 20066A   23179.31046496 -.00000025  00000-0  50647-4 0  9992",
    "TLE_LINE2": "2 46469  65.9971  36.3884 0010078 299.3420  60.6642 13.83373112139723",
    "OBJECT_ID": "2020-066A",
    "OBJECT_NUMBER": "46469",
    "SEMIMAJOR_AXIS": "7330.084",
    "PERIOD": "104.093",
    "APOGEE": "959.336",
    "PERIGEE": "944.562",
    "DECAYED": "0"
  },
  {
    "COMMENT": "GENERATED VIA SPACETRACK.ORG API",
    "ORIGINATOR": "18 SPCS",
    "NORAD_CAT_ID": "46469",
    "OBJECT_NAME": "HAIYANG 2C",
    "OBJECT_TYPE": "PAYLOAD",
    "CLASSIFICATION_TYPE": "U",
    "INTLDES": "20066A",
    "EPOCH": "2023-06-28 17:51:41",
    "EPOCH_MICROSECONDS": "794272",
    "MEAN_MOTION": "13.83373171",
    "ECCENTRICITY": "0.0010089",
    "INCLINATION": "65.9971",
    "RA_OF_ASC_NODE": "35.3084",
    "ARG_OF_PERICENTER": "299.2385",
    "MEAN_ANOMALY": "60.7674",
    "EPHEMERIS_TYPE": "0",
    "ELEMENT_SET_NO": "999",
    "REV_AT_EPOCH": "13978",
    "BSTAR": "0.000051173",
    "MEAN_MOTION_DOT": "-0.00000025",
    "MEAN_MOTION_DDOT": "0",
    "FILE": "3945116",
    "TLE_LINE0": "0 HAIYANG 2C",
    "TLE_LINE1": "1 46469U 20066A   23179.74423373 -.00000025  00000-0  51173-4 0  9997",
    "TLE_LINE2": "2 46469  65.9971  35.3084 0010089 299.2385  60.7674 13.83373171139782",
    "OBJECT_ID": "2020-066A",
    "OBJECT_NUMBER": "46469",
    "SEMIMAJOR_AXIS": "7330.084",
    "PERIOD": "104.093",
    "APOGEE": "959.344",
    "PERIGEE": "944.554",
    "DECAYED": "0"
  },
  {
    "COMMENT": "GENERATED VIA SPACETRACK.ORG API",
    "ORIGINATOR": "18 SPCS",
    "NORAD_CAT_ID": "46469",
    "OBJECT_NAME": "HAIYANG 2C",
    "OBJECT_TYPE": "PAYLOAD",
    "CLASSIFICATION_TYPE": "U",
    "INTLDES": "20066A",
    "EPOCH": "2023-06-29 04:16:19",
    "EPOCH_MICROSECONDS": "419456",
    "MEAN_MOTION": "13.83373248",
    "ECCENTRICITY": "0.001011",
    "INCLINATION": "65.9971",
    "RA_OF_ASC_NODE": "34.2284",
    "ARG_OF_PERICENTER": "299.2398",
    "MEAN_ANOMALY": "60.7659",
    "EPHEMERIS_TYPE": "0",
    "ELEMENT_SET_NO": "999",
    "REV_AT_EPOCH": "13984",
    "BSTAR": "0.000062416",
    "MEAN_MOTION_DOT": "-0.00000013",
    "MEAN_MOTION_DDOT": "0",
    "FILE": "3945377",
    "TLE_LINE0": "0 HAIYANG 2C",
    "TLE_LINE1": "1 46469U 20066A   23180.17800254 -.00000013  00000-0  62416-4 0  9992",
    "TLE_LINE2": "2 46469  65.9971  34.2284 0010110 299.2398  60.7659 13.83373248139846",
    "OBJECT_ID": "2020-066A",
    "OBJECT_NUMBER": "46469",
    "SEMIMAJOR_AXIS": "7330.084",
    "PERIOD": "104.093",
    "APOGEE": "959.359",
    "PERIGEE": "944.538",
    "DECAYED": "0"
  },
  {
    "COMMENT": "GENERATED VIA SPACETRACK.ORG API",
    "ORIGINATOR": "18 SPCS",
    "NORAD_CAT_ID": "46469",
    "OBJECT_NAME": "HAIYANG 2C",
    "OBJECT_TYPE": "PAYLOAD",
    "CLASSIFICATION_TYPE": "U",
    "INTLDES": "20066A",
    "EPOCH": "2023-06-29 11:12:44",
    "EPOCH_MICROSECONDS": "502336",
    "MEAN_MOTION": "13.83373265",
    "ECCENTRICITY": "0.0010119",
    "INCLINATION": "65.9971",
    "RA_OF_ASC_NODE": "33.5084",
    "ARG_OF_PERICENTER": "299.1998",
    "MEAN_ANOMALY": "60.8058",
    "EPHEMERIS_TYPE": "0",
    "ELEMENT_SET_NO": "999",
    "REV_AT_EPOCH": "13988",
    "BSTAR": "0.000056193",
    "MEAN_MOTION_DOT": "-0.00000019",
    "MEAN_MOTION_DDOT": "0",
    "FILE": "3945638",
    "TLE_LINE0": "0 HAIYANG 2C",
    "TLE_LINE1": "1 46469U 20066A   23180.46718174 -.00000019  00000-0  56193-4 0  9994",
    "TLE_LINE2": "2 46469  65.9971  33.5084 0010119 299.1998  60.8058 13.83373265139887",
    "OBJECT_ID": "2020-066A",
    "OBJECT_NUMBER": "46469",
    "SEMIMAJOR_AXIS": "7330.084",
    "PERIOD": "104.093",
    "APOGEE": "959.366",
    "PERIGEE": "944.531",
    "DECAYED": "0"
  },
  {
    "COMMENT": "GENERATED VIA SPACETRACK.ORG API",
    "ORIGINATOR": "18 SPCS",
    "NORAD_CAT_ID": "46469",
    "OBJECT_NAME": "HAIYANG 2C",
    "OBJECT_TYPE": "PAYLOAD",
    "CLASSIFICATION_TYPE": "U",
    "INTLDES": "20066A",
    "EPOCH": "2023-06-29 18:09:09",
    "EPOCH_MICROSECONDS": "580896",
    "MEAN_MOTION": "13.83373275",
    "ECCENTRICITY": "0.0010129",
    "INCLINATION": "65.9971",
    "RA_OF_ASC_NODE": "32.7883",
    "ARG_OF_PERICENTER": "299.1504",
    "MEAN_ANOMALY": "60.855",
    "EPHEMERIS_TYPE": "0",
    "ELEMENT_SET_NO": "999",
    "REV_AT_EPOCH": "13992",
    "BSTAR": "0.000047487",
    "MEAN_MOTION_DOT": "-0.00000029",
    "MEAN_MOTION_DDOT": "0",
    "FILE": "3945901",
    "TLE_LINE0": "0 HAIYANG 2C",
    "TLE_LINE1": "1 46469U 20066A   23180.75636089 -.00000029  00000-0  47487-4 0  9997",
    "TLE_LINE2": "2 46469  65.9971  32.7883 0010129 299.1504  60.8550 13.83373275139922",
    "OBJECT_ID": "2020-066A",
    "OBJECT_NUMBER": "46469",
    "SEMIMAJOR_AXIS": "7330.083",
    "PERIOD": "104.093",
    "APOGEE": "959.373",
    "PERIGEE": "944.524",
    "DECAYED": "0"
  },
  {
    "COMMENT": "GENERATED VIA SPACETRACK.ORG API",
    "ORIGINATOR": "18 SPCS",
    "NORAD_CAT_ID": "46469",
    "OBJECT_NAME": "HAIYANG 2C",
    "OBJECT_TYPE": "PAYLOAD",
    "CLASSIFICATION_TYPE": "U",
    "INTLDES": "20066A",
    "EPOCH": "2023-06-30 14:58:24",
    "EPOCH_MICROSECONDS": "821760",
    "MEAN_MOTION": "13.83373379",
    "ECCENTRICITY": "0.0010153",
    "INCLINATION": "65.9971",
    "RA_OF_ASC_NODE": "30.6283",
    "ARG_OF_PERICENTER": "299.0185",
    "MEAN_ANOMALY": "60.9866",
    "EPHEMERIS_TYPE": "0",
    "ELEMENT_SET_NO": "999",
    "REV_AT_EPOCH": "14004",
    "BSTAR": "0.000050074",
    "MEAN_MOTION_DOT": "-0.00000026",
    "MEAN_MOTION_DDOT": "0",
    "FILE": "3946143",
    "TLE_LINE0": "0 HAIYANG 2C",
    "TLE_LINE1": "1 46469U 20066A   23181.62389840 -.00000026  00000-0  50074-4 0  9997",
    "TLE_LINE2": "2 46469  65.9971  30.6283 0010153 299.0185  60.9866 13.83373379140045",
    "OBJECT_ID": "2020-066A",
    "OBJECT_NUMBER": "46469",
    "SEMIMAJOR_AXIS": "7330.083",
    "PERIOD": "104.093",
    "APOGEE": "959.390",
    "PERIGEE": "944.506",
    "DECAYED": "0"
  },
  {
    "COMMENT": "GENERATED VIA SPACETRACK.ORG API",
    "ORIGINATOR": "18 SPCS",
    "NORAD_CAT_ID": "46469",
    "OBJECT_NAME": "HAIYANG 2C",
    "OBJECT_TYPE": "PAYLOAD",
    "CLASSIFICATION_TYPE": "U",
    "INTLDES": "20066A",
    "EPOCH": "2023-07-01 01:23:02",
    "EPOCH_MICROSECONDS": "442624",
    "MEAN_MOTION": "13.83373413",
    "ECCENTRICITY": "0.0010174",
    "INCLINATION": "65.9971",
    "RA_OF_ASC_NODE": "29.5482",
    "ARG_OF_PERICENTER": "299.0097",
    "MEAN_ANOMALY": "60.9951",
    "EPHEMERIS_TYPE": "0",
    "ELEMENT_SET_NO": "999",
    "REV_AT_EPOCH": "14010",
    "BSTAR": "0.000051798",
    "MEAN_MOTION_DOT": "-0.00000024",
    "MEAN_MOTION_DDOT": "0",
    "FILE": "3946446",
    "TLE_LINE0": "0 HAIYANG 2C",
    "TLE_LINE1": "1 46469U 20066A   23182.05766716 -.00000024  00000-0  51798-4 0  9998",
    "TLE_LINE2": "2 46469  65.9971  29.5482 0010174 299.0097  60.9951 13.83373413140109",
    "OBJECT_ID": "2020-066A",
    "OBJECT_NUMBER": "46469",
    "SEMIMAJOR_AXIS": "7330.083",
    "PERIOD": "104.093",
    "APOGEE": "959.406",
    "PERIGEE": "944.490",
    "DECAYED": "0"
  }
]